NORAD_CAT_ID,OBJECT_NAME,OBJECT_TYPE,EPOCH,MEAN_MOTION,ECCENTRICITY,INCLINATION,RA_OF_ASC_NODE,ARG_OF_PERICENTER,MEAN_ANOMALY,BSTAR,MEAN_MOTION_DOT,MEAN_MOTION_DDOT,TLE_LINE0,TLE_LINE1,TLE_LINE2,SEMIMAJOR_AXIS,PERIOD,APOGEE,PERIGEE,DECAYED
54012.0,STARLINK-5126,PAYLOAD,2023-02-25 22:48:18,15.08841228,0.0001262,53.2186,136.8281,82.2907,277.8229,0.00027379,4.072e-05,0.0,0 STARLINK-5126,1 54012U 22125BA  23056.95021882  .00004072  00000-0  27379-3 0  9999,2 54012  53.2186 136.8281 0001262  82.2907 277.8229 15.08841228 22423,6917.877,95.437,540.615,538.869,0.0
54012.0,STARLINK-5126,PAYLOAD,2023-02-26 08:20:37,15.08861593,8.75e-05,53.2171,135.0433,81.6942,278.4149,0.0011618,0.00018261,0.0,0 STARLINK-5126,1 54012U 22125BA  23057.34765444  .00018261  00000-0  11618-2 0  9995,2 54012  53.2171 135.0433 0000875  81.6942 278.4149 15.08861593 22489,6917.814,95.436,540.285,539.074,0.0
54012.0,STARLINK-5126,PAYLOAD,2023-02-26 11:31:23,15.08875787,0.0001108,53.217,134.4488,72.8616,287.2497,0.0018171,0.00028778,0.0,0 STARLINK-5126,1 54012U 22125BA  23057.48013272  .00028778  00000-0  18171-2 0  9990,2 54012  53.2170 134.4488 0001108  72.8616 287.2497 15.08875787 22452,6917.771,95.435,540.402,538.87,0.0
54012.0,STARLINK-5126,PAYLOAD,2023-02-26 14:42:09,15.08886656,0.0001116,53.2169,133.8539,73.0088,287.1027,0.0019909,0.0003158,0.0,0 STARLINK-5126,1 54012U 22125BA  23057.61260855  .00031580  00000-0  19909-2 0  9991,2 54012  53.2169 133.8539 0001116  73.0088 287.1027 15.08886656 22528,6917.738,95.435,540.375,538.831,0.0
54012.0,STARLINK-5126,PAYLOAD,2023-02-26 22:39:04,15.0885945,6.96e-05,53.2183,132.3664,104.9841,255.1228,0.00060428,9.347e-05,0.0,0 STARLINK-5126,1 54012U 22125BA  23057.94380786  .00009347  00000-0  60428-3 0  9992,2 54012  53.2183 132.3664 0000696 104.9841 255.1228 15.08859450 22575,6917.821,95.436,540.167,539.204,0.0
54012.0,STARLINK-5126,PAYLOAD,2023-02-27 08:11:24,15.08852753,0.0001639,53.2167,130.5822,111.8752,248.2415,0.0013199,0.00020788,0.0,0 STARLINK-5126,1 54012U 22125BA  23058.34125145  .00020788  00000-0  13199-2 0  9997,2 54012  53.2167 130.5822 0001639 111.8752 248.2415 15.08852753 22636,6917.841,95.437,540.84,538.573,0.0
54012.0,STARLINK-5126,PAYLOAD,2023-02-27 14:32:56,15.08884091,0.0001726,53.2168,129.3898,126.4155,233.6996,0.0020147,0.00031961,0.0,0 STARLINK-5126,1 54012U 22125BA  23058.60620513  .00031961  00000-0  20147-2 0  9991,2 54012  53.2168 129.3898 0001726 126.4155 233.6996 15.08884091 22678,6917.746,95.435,540.805,538.417,0.0
54012.0,STARLINK-5126,PAYLOAD,2023-02-28 03:16:02,15.08837866,0.0001309,53.2182,127.0137,100.6157,259.4982,0.00075372,0.00011727,0.0,0 STARLINK-5126,1 54012U 22125BA  23059.13613792  .00011727  00000-0  75372-3 0  9990,2 54012  53.2182 127.0137 0001309 100.6157 259.4982 15.08837866 22756,6917.887,95.438,540.657,538.846,0.0
54012.0,STARLINK-5126,PAYLOAD,2023-02-28 11:12:58,15.08829951,0.0001214,53.2191,125.5263,108.4188,251.6936,0.00037256,5.645e-05,0.0,0 STARLINK-5126,1 54012U 22125BA  23059.46734243  .00005645  00000-0  37256-3 0  9992,2 54012  53.2191 125.5263 0001214 108.4188 251.6936 15.08829951 22809,6917.911,95.438,540.616,538.936,0.0
54012.0,STARLINK-5126,PAYLOAD,2023-02-28 20:45:17,15.08825953,0.0001241,53.2188,123.7428,97.5714,262.5419,0.00046093,7.053e-05,0.0,0 STARLINK-5126,1 54012U 22125BA  23059.86478863  .00007053  00000-0  46093-3 0  9993,2 54012  53.2188 123.7428 0001241  97.5714 262.5419 15.08825953 22817,6917.923,95.438,540.647,538.93,0.0
54012.0,STARLINK-5126,PAYLOAD,2023-03-01 03:06:50,15.08827954,0.0001731,53.2197,122.5568,94.6292,265.4898,6.6714e-05,7.74e-06,0.0,0 STARLINK-5126,1 54012U 22125BA  23060.12975295  .00000774  00000-0  66714-4 0  9991,2 54012  53.2197 122.5568 0001731  94.6292 265.4898 15.08827954 22908,6917.917,95.438,540.98,538.585,0.0
54012.0,STARLINK-5126,PAYLOAD,2023-03-01 20:36:05,15.08835617,0.0001539,53.2192,119.2835,83.5804,276.5363,0.0007027,0.00010912,0.0,0 STARLINK-5126,1 54012U 22125BA  23060.85839902  .00010912  00000-0  70270-3 0  9991,2 54012  53.2192 119.2835 0001539  83.5804 276.5363 15.08835617 22966,6917.894,95.438,540.823,538.694,0.0
54012.0,STARLINK-5126,PAYLOAD,2023-03-02 14:05:18,15.08889024,0.0001519,53.2188,116.0135,70.6346,289.481,0.0015124,0.00023896,0.0,0 STARLINK-5126,1 54012U 22125BA  23061.58702280  .00023896  00000-0  15124-2 0  9991,2 54012  53.2188 116.0135 0001519  70.6346 289.4810 15.08889024 23125,6917.731,95.434,540.646,538.545,0.0
54012.0,STARLINK-5126,PAYLOAD,2023-03-03 07:34:32,15.0888025,0.0001315,53.2177,112.7418,89.2162,270.8981,0.001918,0.00030403,0.0,0 STARLINK-5126,1 54012U 22125BA  23062.31565488  .00030403  00000-0  19180-2 0  9998,2 54012  53.2177 112.7418 0001315  89.2162 270.8981 15.08880250 23233,6917.757,95.435,540.532,538.713,0.0
54012.0,STARLINK-5126,PAYLOAD,2023-03-03 12:20:41,15.08893385,0.0001265,53.2174,111.85,75.2752,284.838,0.0024611,0.00039156,0.0,0 STARLINK-5126,1 54012U 22125BA  23062.51436941  .00039156  00000-0  24611-2 0  9990,2 54012  53.2174 111.8500 0001265  75.2752 284.8380 15.08893385 23215,6917.717,95.434,540.457,538.707,0.0
54012.0,STARLINK-5126,PAYLOAD,2023-03-03 20:17:37,15.08849679,0.0001802,53.2176,110.3626,69.476,290.6425,0.0019296,0.00030563,0.0,0 STARLINK-5126,1 54012U 22125BA  23062.84557126  .00030563  00000-0  19296-2 0  9991,2 54012  53.2176 110.3626 0001802  69.4760 290.6425 15.08849679 23268,6917.851,95.437,540.962,538.469,0.0
54012.0,STARLINK-5126,PAYLOAD,2023-03-04 02:39:10,15.08860446,0.0002821,53.217,109.1749,73.522,286.6082,0.0024718,0.00039294,0.0,0 STARLINK-5126,1 54012U 22125BA  23063.11053479  .00039294  00000-0  24718-2 0  9999,2 54012  53.2170 109.1749 0002821  73.5220 286.6082 15.08860446 23352,6917.818,95.436,541.634,537.731,0.0
54012.0,STARLINK-5126,PAYLOAD,2023-03-04 09:00:42,15.08859247,0.0001482,53.2174,107.9843,71.4647,288.6506,0.0018605,0.00029462,0.0,0 STARLINK-5126,1 54012U 22125BA  23063.37548995  .00029462  00000-0  18605-2 0  9993,2 54012  53.2174 107.9843 0001482  71.4647 288.6506 15.08859247 23393,6917.822,95.436,540.712,538.661,0.0
54012.0,STARLINK-5126,PAYLOAD,2023-03-04 10:36:05,15.0886145,0.0001479,53.2176,107.6872,69.4312,290.6839,0.0021169,0.00033583,0.0,0 STARLINK-5126,1 54012U 22125BA  23063.44172965  .00033583  00000-0  21169-2 0  9999,2 54012  53.2176 107.6872 0001479  69.4312 290.6839 15.08861450 23353,6917.815,95.436,540.703,538.657,0.0
54012.0,STARLINK-5126,PAYLOAD,2023-03-04 20:08:24,15.0885068,0.0001618,53.2172,105.9026,78.963,281.1544,0.0012603,0.00019832,0.0,0 STARLINK-5126,1 54012U 22125BA  23063.83917247  .00019832  00000-0  12603-2 0  9996,2 54012  53.2172 105.9026 0001618  78.9630 281.1544 15.08850680 23412,6917.848,95.437,540.832,538.593,0.0
54012.0,STARLINK-5126,PAYLOAD,2023-03-05 07:16:07,15.08830402,0.0001327,53.2175,103.8214,85.0653,275.0491,0.0013631,0.00021467,0.0,0 STARLINK-5126,1 54012U 22125BA  23064.30285900  .00021467  00000-0  13631-2 0  9992,2 54012  53.2175 103.8214 0001327  85.0653 275.0491 15.08830402 23482,6917.91,95.438,540.693,538.857,0.0
54012.0,STARLINK-5126,PAYLOAD,2023-03-05 19:59:12,15.08845313,0.0001644,53.2178,101.4429,80.6948,279.423,0.001496,0.00023605,0.0,0 STARLINK-5126,1 54012U 22125BA  23064.83278315  .00023605  00000-0  14960-2 0  9994,2 54012  53.2178 101.4429 0001644  80.6948 279.4230 15.08845313 23618,6917.864,95.437,540.866,538.592,0.0
54012.0,STARLINK-5126,PAYLOAD,2023-03-06 08:42:17,15.08859471,0.0001746,53.2185,99.0628,85.5489,274.5703,0.0011431,0.00017961,0.0,0 STARLINK-5126,1 54012U 22125BA  23065.36269957  .00017961  00000-0  11431-2 0  9993,2 54012  53.2185  99.0628 0001746  85.5489 274.5703 15.08859471 23695,6917.821,95.436,540.894,538.478,0.0
54012.0,STARLINK-5126,PAYLOAD,2023-03-06 13:28:26,15.08871032,0.0001816,53.2187,98.168,94.3352,265.7847,0.0012308,0.00019371,0.0,0 STARLINK-5126,1 54012U 22125BA  23065.56141408  .00019371  00000-0  12308-2 0  9996,2 54012  53.2187  98.1680 0001816  94.3352 265.7847 15.08871032 23676,6917.786,95.436,540.907,538.394,0.0
54012.0,STARLINK-5126,PAYLOAD,2023-03-07 08:33:04,15.08840723,0.0001478,53.2184,94.6017,107.217,252.8984,0.00046109,7.058e-05,0.0,0 STARLINK-5126,1 54012U 22125BA  23066.35630252  .00007058  00000-0  46109-3 0  9990,2 54012  53.2184  94.6017 0001478 107.2170 252.8984 15.08840723 23845,6917.878,95.438,540.766,538.721,0.0
54012.0,STARLINK-5126,PAYLOAD,2023-03-07 13:19:14,15.08845614,0.0001377,53.218,93.7086,111.2962,248.8177,0.0017375,0.00027477,0.0,0 STARLINK-5126,1 54012U 22125BA  23066.55502398  .00027477  00000-0  17375-2 0  9990,2 54012  53.2180  93.7086 0001377 111.2962 248.8177 15.08845614 23820,6917.863,95.437,540.681,538.776,0.0
54012.0,STARLINK-5126,PAYLOAD,2023-03-08 02:02:19,15.08844125,0.0001809,53.2181,91.3314,117.6305,242.4871,0.0013262,0.00020884,0.0,0 STARLINK-5126,1 54012U 22125BA  23067.08494916  .00020884  00000-0  13262-2 0  9991,2 54012  53.2181  91.3314 0001809 117.6305 242.4871 15.08844125 23951,6917.868,95.437,540.984,538.481,0.0
54012.0,STARLINK-5126,PAYLOAD,2023-03-08 17:56:10,15.08895403,0.0001192,53.2176,88.3565,109.3892,250.7229,0.0029236,0.0004662,0.0,0 STARLINK-5126,1 54012U 22125BA  23067.74733803  .00046620  00000-0  29236-2 0  9999,2 54012  53.2176  88.3565 0001192 109.3892 250.7229 15.08895403 24059,6917.711,95.434,540.401,538.751,0.0
54012.0,STARLINK-5126,PAYLOAD,2023-03-09 00:17:43,15.08861258,0.0001735,53.2179,87.1671,99.684,260.4348,0.0021268,0.00033742,0.0,0 STARLINK-5126,1 54012U 22125BA  23068.01230695  .00033742  00000-0  21268-2 0  9999,2 54012  53.2179  87.1671 0001735  99.6840 260.4348 15.08861258 24099,6917.815,95.436,540.881,538.48,0.0
54012.0,STARLINK-5126,PAYLOAD,2023-03-09 17:46:57,15.08854101,0.0001398,53.2181,83.8971,94.6557,265.4595,0.0010087,0.00015808,0.0,0 STARLINK-5126,1 54012U 22125BA  23068.74094489  .00015808  00000-0  10087-2 0  9998,2 54012  53.2181  83.8971 0001398  94.6557 265.4595 15.08854101 24204,6917.837,95.437,540.669,538.735,0.0
